BEIDOU-2 IGSO-5         
1 37948U 11073A   26156.29611367 -.00000159  00000+0  00000+0 0  9992
2 37948  47.7011 271.6946 0113432 221.7167 318.6629  1.00275849 53018
LUCH-5A                 
1 37951U 11074B   26156.09718957 -.00000039  00000+0  00000+0 0  9995
2 37951   8.7230  73.9855 0002481   9.1974  12.3602  1.00269911 52931
BEIDOU-2 G5             
1 38091U 12008A   26156.14708519  .00000069  00000+0  00000+0 0  9990
2 38091   3.5438  69.7718 0009613 276.3406  19.1300  1.00269511 52243
BEIDOU-2 M3             
1 38250U 12018A   26155.83864813 -.00000057  00000+0  00000+0 0  9991
2 38250  55.7691 305.2911 0019906 274.9858  84.7727  1.86230146 95710
SES-5                   
1 38652U 12036A   26155.99380596  .00000046  00000+0  00000+0 0  9992
2 38652   0.0499 310.6232 0002151 122.2129 183.3480  1.00271985 44337
BEIDOU-2 M6             
1 38775U 12050B   26156.01768472 -.00000039  00000+0  00000+0 0  9994
2 38775  56.5339  63.2969 0013929 355.3451   4.6688  1.86231028 93081
GSAT-10                 
1 38779U 12051B   26156.15185188 -.00000153  00000+0  00000+0 0  9998
2 38779   0.0217 261.4881 0008070 186.6616 303.1346  1.00272286 49972
NAVSTAR 67 (USA 239)    
1 38833U 12053A   26155.35348569  .00000065  00000+0  00000+0 0  9997
2 38833  53.5835 144.1250 0179571  65.5761 296.2750  2.00567337 99184
GSAT0103 (GALILEO-FM3)  
1 38857U 12055A   26154.98409252  .00000012  00000+0  00000+0 0  9992
2 38857  55.7975 101.9078 0005173 302.0850  57.8240  1.70473522 84785
LUCH-5B                 
1 38977U 12061A   26156.06149399 -.00000128  00000+0  00000+0 0  9995
2 38977  10.4553  49.9998 0001657 139.2463  70.0738  1.00274355 49486
COSMOS 2485 [GLONASS-M] 
1 39155U 13019A   26156.17851194 -.00000007  00000+0  00000+0 0  9999
2 39155  65.4134  74.0071 0023502 235.0569 124.7432  2.13103447102022
NAVSTAR 68 (USA 242)    
1 39166U 13023A   26154.22294731 -.00000027  00000+0  00000+0 0  9990
2 39166  54.5153 269.5426 0141636  50.9649 310.3017  2.00563651 95601
IRNSS-1A                
1 39199U 13034A   26142.85947303  .00000059  00000+0  00000+0 0  9998
2 39199  35.6649  64.2334 0016618 185.3754 355.4646  1.00280263 47111
NAVSTAR 69 (USA 248)    
1 39533U 14008A   26156.21877259  .00000077  00000+0  00000+0 0  9999
2 39533  53.6527 149.8078 0084237 231.0835 128.1616  2.00559076 89440
ASTRA 5B                
1 39617U 14011B   26156.28250693  .00000150  00000+0  00000+0 0  9992
2 39617   0.0612 313.2907 0002257 114.6228 311.0342  1.00273279 44544
COSMOS 2492 [GLONASS-M] 
1 39620U 14012A   26156.13739756 -.00000033  00000+0  00000+0 0  9994
2 39620  65.3049 314.3450 0010580 327.2307  32.6967  2.13103532 94980
IRNSS-1B                
1 39635U 14017A   26139.86086405  .00000103  00000+0  00000+0 0  9999
2 39635  28.9733 240.8911 0024226 185.2284 176.5740  1.00280229 44519
LUCH-5V                 
1 39727U 14023A   26156.18566959 -.00000257  00000+0  00000+0 0  9990
2 39727   5.1037  69.8704 0002794  27.3598 317.9589  1.00268963 44236
NAVSTAR 70 (USA 251)    
1 39741U 14026A   26155.99560652 -.00000066  00000+0  00000+0 0  9999
2 39741  56.5044 331.9921 0038277 326.7551  33.0091  2.00562000 88292
COSMOS 2500 [GLONASS-M] 
1 40001U 14032A   26156.30730628 -.00000032  00000+0  00000+0 0  9998
2 40001  65.2399 314.0875 0006921 182.6987 177.2913  2.13106228 93207
NAVSTAR 71 (USA 256)    
1 40105U 14045A   26156.08723116  .00000004  00000+0  00000+0 0  9994
2 40105  55.3456  88.9470 0032817 118.4202 241.9011  2.00557683 85833
GSAT0201 (GALILEO 5)    
1 40128U 14050A   26153.86432925 -.00000050  00000+0  00000+0 0  9995
2 40128  48.8915 274.0236 1672406 178.8372 181.6513  1.85520153 78053
GSAT0202 (GALILEO 6)    
1 40129U 14050B   26155.19788769 -.00000046  00000+0  00000+0 0  9999
2 40129  48.9068 273.0544 1673799 179.6143 180.5799  1.85520721 80245
IRNSS-1C                
1 40269U 14061A   26155.78889656 -.00000151  00000+0  00000+0 0  9995
2 40269   6.4870  89.1625 0022549   1.0591 170.0417  1.00271289 42564
NAVSTAR 72 (USA 258)    
1 40294U 14068A   26155.95813785 -.00000069  00000+0  00000+0 0  9997
2 40294  56.9793  31.4259 0066742  70.1188 290.6558  2.00575574 84961
COSMOS 2501 [GLONASS-K] 
1 40315U 14075A   26156.09998656  .00000070  00000+0  00000+0 0  9997
2 40315  63.6155 190.7905 0022434 212.0821 147.8495  2.13101471 89592
NAVSTAR 73 (USA 260)    
1 40534U 15013A   26156.09596329  .00000046  00000+0  00000+0 0  9997
2 40534  53.1687 204.6778 0109301  40.1042 320.7783  2.00552074 81584
GSAT0203 (GALILEO 7)    
1 40544U 15017A   26155.30800990 -.00000072  00000+0  00000+0 0  9997
2 40544  56.7908 341.9466 0002099 283.9849  76.0032  1.70476247 68987
GSAT0204 (GALILEO 8)    
1 40545U 15017B   26154.97718487 -.00000073  00000+0  00000+0 0  9990
2 40545  56.7984 341.9741 0001793 255.5555 104.4361  1.70475856 32029
